[{"OBJECT_NAME":"STARLINK-2589","OBJECT_ID":"2021-038U","EPOCH":"2026-03-09T04:21:32.831136","MEAN_MOTION":15.30201317,"ECCENTRICITY":0.0001151,"INCLINATION":53.1604,"RA_OF_ASC_NODE":350.145,"ARG_OF_PERICENTER":95.8542,"MEAN_ANOMALY":264.259,"EPHEMERIS_TYPE":0,"CLASSIFICATION_TYPE":"U","NORAD_CAT_ID":48371,"ELEMENT_SET_NO":999,"REV_AT_EPOCH":26714,"BSTAR":-0.00010318132,"MEAN_MOTION_DOT":-3.414e-5,"MEAN_MOTION_DDOT":0},{"OBJECT_NAME":"NUSAT-49 (KLARA DAN VON NEUMANN)","OBJECT_ID":"2024-149AJ","EPOCH":"2026-03-09T19:09:16.004160","MEAN_MOTION":15.30828857,"ECCENTRICITY":0.00011321,"INCLINATION":97.3807,"RA_OF_ASC_NODE":150.738,"ARG_OF_PERICENTER":286.7761,"MEAN_ANOMALY":73.3356,"EPHEMERIS_TYPE":0,"CLASSIFICATION_TYPE":"U","NORAD_CAT_ID":60500,"ELEMENT_SET_NO":999,"REV_AT_EPOCH":8693,"BSTAR":0.00043568345,"MEAN_MOTION_DOT":0.00012912,"MEAN_MOTION_DDOT":0}]
