STARLINK-2589           
1 48371U 21038U   26068.18162999 -.00003414  00000+0 -10318-3 0  9993
2 48371  53.1604 350.1450 0001151  95.8542 264.2590 15.30201317267144
NUSAT-49 (KLARA DAN VO*)
1 60500U 24149AJ  26068.79810190  .00012912  00000+0  43568-3 0  9991
2 60500  97.3807 150.7380 0001132 286.7761  73.3356 15.30828857 86935
